[
    {
        "CCSDS_OMM_VERS": "3.0",
        "COMMENT": "GENERATED VIA SPACE-TRACK.ORG API",
        "CREATION_DATE": "2025-03-02T18:08:23",
        "ORIGINATOR": "18 SPCS",
        "OBJECT_NAME": "NAVSTAR 75 (USA 265)",
        "OBJECT_ID": "2015-062A",
        "CENTER_NAME": "EARTH",
        "REF_FRAME": "TEME",
        "TIME_SYSTEM": "UTC",
        "MEAN_ELEMENT_THEORY": "SGP4",
        "EPOCH": "2025-03-02T03:01:54.324480",
        "MEAN_MOTION": "2.00566557",
        "ECCENTRICITY": "0.01030280",
        "INCLINATION": "56.6171",
        "RA_OF_ASC_NODE": "49.0560",
        "ARG_OF_PERICENTER": "228.4522",
        "MEAN_ANOMALY": "130.6665",
        "EPHEMERIS_TYPE": "0",
        "CLASSIFICATION_TYPE": "U",
        "NORAD_CAT_ID": "41019",
        "ELEMENT_SET_NO": "999",
        "REV_AT_EPOCH": "6836",
        "BSTAR": "0.00000000000000",
        "MEAN_MOTION_DOT": "-0.00000029",
        "MEAN_MOTION_DDOT": "0.0000000000000",
        "SEMIMAJOR_AXIS": "26560.087",
        "PERIOD": "717.966",
        "APOAPSIS": "20455.595",
        "PERIAPSIS": "19908.309",
        "OBJECT_TYPE": "PAYLOAD",
        "RCS_SIZE": "LARGE",
        "COUNTRY_CODE": "US",
        "LAUNCH_DATE": "2015-10-31",
        "SITE": "AFETR",
        "DECAY_DATE": null,
        "FILE": "4657142",
        "GP_ID": "282085364",
        "TLE_LINE0": "0 NAVSTAR 75 (USA 265)",
        "TLE_LINE1": "1 41019U 15062A   25061.12632320 -.00000029  00000-0  00000-0 0  9994",
        "TLE_LINE2": "2 41019  56.6171  49.0560 0103028 228.4522 130.6665  2.00566557 68362"
    }
]